{
  "norad_id": 48643,
  "name": "STARLINK-2704",
  "history": [
    {
      "epoch": "2026-03-28T12:45:17.830368Z",
      "apogee_km": 476.4385307250932,
      "perigee_km": 473.9977768206272,
      "latitude_deg": -1.6209588980678607e-05,
      "longitude_deg": 9.069031639917762,
      "height_km": 476.3456553013113,
      "semi_major_axis_km": 6853.35515377286,
      "eccentricity": 0.00017807,
      "inclination_deg": 53.1616,
      "raan_deg": 26.3439,
      "arg_perigee_deg": 100.8599,
      "mean_anomaly_deg": 259.2602,
      "mean_motion_rev_day": 15.30198967
    },
    {
      "epoch": "2026-03-29T02:51:46.120320Z",
      "apogee_km": 476.2507741298841,
      "perigee_km": 474.06731401024354,
      "latitude_deg": -1.728404553355026e-05,
      "longitude_deg": 154.14016676313932,
      "height_km": 476.44861515829666,
      "semi_major_axis_km": 6853.2960440700635,
      "eccentricity": 0.0001593,
      "inclination_deg": 53.1599,
      "raan_deg": 23.6123,
      "arg_perigee_deg": 111.0317,
      "mean_anomaly_deg": 249.0854,
      "mean_motion_rev_day": 15.30218764
    },
    {
      "epoch": "2026-03-30T02:22:34.439808Z",
      "apogee_km": 476.43924924557996,
      "perigee_km": 474.0885327399692,
      "latitude_deg": 2.5557859028294417e-05,
      "longitude_deg": 155.9262061114998,
      "height_km": 476.60762558945737,
      "semi_major_axis_km": 6853.400890992774,
      "eccentricity": 0.0001715,
      "inclination_deg": 53.1616,
      "raan_deg": 19.0653,
      "arg_perigee_deg": 112.2974,
      "mean_anomaly_deg": 247.8209,
      "mean_motion_rev_day": 15.30183649
    },
    {
      "epoch": "2026-03-30T05:30:40.927968Z",
      "apogee_km": 476.24503432734673,
      "perigee_km": 474.22986810371185,
      "latitude_deg": -2.7972074670961152e-05,
      "longitude_deg": 108.15917693772445,
      "height_km": 476.32125824396945,
      "semi_major_axis_km": 6853.374451215529,
      "eccentricity": 0.00014702,
      "inclination_deg": 53.1602,
      "raan_deg": 18.4541,
      "arg_perigee_deg": 100.6352,
      "mean_anomaly_deg": 259.4814,
      "mean_motion_rev_day": 15.30192504
    },
    {
      "epoch": "2026-03-30T11:46:53.472288Z",
      "apogee_km": 476.17402527982813,
      "perigee_km": 474.2334333189192,
      "latitude_deg": -4.8831996605147875e-05,
      "longitude_deg": 12.636787738548938,
      "height_km": 476.4105770932945,
      "semi_major_axis_km": 6853.340729299373,
      "eccentricity": 0.00014158,
      "inclination_deg": 53.1602,
      "raan_deg": 17.2415,
      "arg_perigee_deg": 108.5603,
      "mean_anomaly_deg": 251.5551,
      "mean_motion_rev_day": 15.30203798
    },
    {
      "epoch": "2026-03-30T19:37:09.394176Z",
      "apogee_km": 476.0564395735737,
      "perigee_km": 474.2902044373868,
      "latitude_deg": -1.2957706623429632e-05,
      "longitude_deg": -106.76861156091692,
      "height_km": 476.2826362624079,
      "semi_major_axis_km": 6853.31032200548,
      "eccentricity": 0.00012886,
      "inclination_deg": 53.1601,
      "raan_deg": 15.7243,
      "arg_perigee_deg": 103.8365,
      "mean_anomaly_deg": 256.2779,
      "mean_motion_rev_day": 15.30213982
    },
    {
      "epoch": "2026-03-31T19:07:57.481248Z",
      "apogee_km": 477.4517360436339,
      "perigee_km": 473.0217152673713,
      "latitude_deg": 3.6375868051485696e-05,
      "longitude_deg": -104.98279555329577,
      "height_km": 476.8791941748504,
      "semi_major_axis_km": 6853.373725655502,
      "eccentricity": 0.0003232,
      "inclination_deg": 53.1579,
      "raan_deg": 11.1761,
      "arg_perigee_deg": 109.717,
      "mean_anomaly_deg": 250.418,
      "mean_motion_rev_day": 15.30192747
    },
    {
      "epoch": "2026-04-01T01:24:10.719360Z",
      "apogee_km": 475.8689535670901,
      "perigee_km": 474.6974299195135,
      "latitude_deg": 4.765896608903172e-06,
      "longitude_deg": 159.48980857622772,
      "height_km": 476.2917319727946,
      "semi_major_axis_km": 6853.420191743302,
      "eccentricity": 8.547e-05,
      "inclination_deg": 53.16,
      "raan_deg": 9.9614,
      "arg_perigee_deg": 100.8138,
      "mean_anomaly_deg": 259.2959,
      "mean_motion_rev_day": 15.30177185
    },
    {
      "epoch": "2026-04-02T21:17:40.711200Z",
      "apogee_km": 475.9311471495703,
      "perigee_km": 474.427529544937,
      "latitude_deg": 6.644258886289768e-08,
      "longitude_deg": -149.18562575010046,
      "height_km": 476.0156037946557,
      "semi_major_axis_km": 6853.316338347253,
      "eccentricity": 0.0001097,
      "inclination_deg": 53.161,
      "raan_deg": 1.4635,
      "arg_perigee_deg": 85.2571,
      "mean_anomaly_deg": 274.8555,
      "mean_motion_rev_day": 15.30211967
    },
    {
      "epoch": "2026-04-02T22:51:43.870176Z",
      "apogee_km": 475.903489139253,
      "perigee_km": 474.46593637678507,
      "latitude_deg": 1.3063033501623986e-05,
      "longitude_deg": -173.06555517282044,
      "height_km": 476.0585036926573,
      "semi_major_axis_km": 6853.321712758018,
      "eccentricity": 0.00010488,
      "inclination_deg": 53.1605,
      "raan_deg": 1.1611,
      "arg_perigee_deg": 88.0354,
      "mean_anomaly_deg": 272.0767,
      "mean_motion_rev_day": 15.30210167
    },
    {
      "epoch": "2026-04-03T20:48:28.518336Z",
      "apogee_km": 476.04225725951073,
      "perigee_km": 474.35222503564364,
      "latitude_deg": -5.687544214241185e-05,
      "longitude_deg": -147.39932064513724,
      "height_km": 476.039433178613,
      "semi_major_axis_km": 6853.334241147577,
      "eccentricity": 0.0001233,
      "inclination_deg": 53.1614,
      "raan_deg": 356.9147,
      "arg_perigee_deg": 86.1934,
      "mean_anomaly_deg": 273.9207,
      "mean_motion_rev_day": 15.30205971
    },
    {
      "epoch": "2026-04-03T22:22:31.707552Z",
      "apogee_km": 476.0328151828353,
      "perigee_km": 474.3622463576148,
      "latitude_deg": 2.1299259730551015e-05,
      "longitude_deg": -171.2801279055199,
      "height_km": 475.9346778352563,
      "semi_major_axis_km": 6853.334530770225,
      "eccentricity": 0.00012188,
      "inclination_deg": 53.1611,
      "raan_deg": 356.6115,
      "arg_perigee_deg": 78.8763,
      "mean_anomaly_deg": 281.2375,
      "mean_motion_rev_day": 15.30205874
    },
    {
      "epoch": "2026-04-05T10:25:45.077664Z",
      "apogee_km": 476.34123296368125,
      "perigee_km": 474.1562365237314,
      "latitude_deg": 1.6417092669063103e-05,
      "longitude_deg": -0.5426154939913628,
      "height_km": 475.8168580430908,
      "semi_major_axis_km": 6853.385734743706,
      "eccentricity": 0.00015941,
      "inclination_deg": 53.1613,
      "raan_deg": 349.6354,
      "arg_perigee_deg": 72.4327,
      "mean_anomaly_deg": 287.6848,
      "mean_motion_rev_day": 15.30188725
    },
    {
      "epoch": "2026-04-05T16:41:58.104960Z",
      "apogee_km": 476.4500143815012,
      "perigee_km": 474.0691444098193,
      "latitude_deg": -2.9819267511006714e-05,
      "longitude_deg": -96.06864227786676,
      "height_km": 475.9397963305962,
      "semi_major_axis_km": 6853.39657939566,
      "eccentricity": 0.0001737,
      "inclination_deg": 53.1612,
      "raan_deg": 348.4212,
      "arg_perigee_deg": 79.4786,
      "mean_anomaly_deg": 280.641,
      "mean_motion_rev_day": 15.30185093
    },
    {
      "epoch": "2026-04-06T02:06:17.736192Z",
      "apogee_km": 476.19474065971554,
      "perigee_km": 474.35199567992186,
      "latitude_deg": 2.109154877687132e-05,
      "longitude_deg": 120.64222985423018,
      "height_km": 476.14877273480414,
      "semi_major_axis_km": 6853.410368169818,
      "eccentricity": 0.00013444,
      "inclination_deg": 53.1617,
      "raan_deg": 346.6001,
      "arg_perigee_deg": 88.5857,
      "mean_anomaly_deg": 271.5298,
      "mean_motion_rev_day": 15.30180475
    },
    {
      "epoch": "2026-04-07T09:27:21.716640Z",
      "apogee_km": 476.09532004564244,
      "perigee_km": 474.40349307731867,
      "latitude_deg": -3.5494049363130245e-05,
      "longitude_deg": 3.021054919305449,
      "height_km": 475.9106643713509,
      "semi_major_axis_km": 6853.386406561481,
      "eccentricity": 0.00012343,
      "inclination_deg": 53.1611,
      "raan_deg": 340.5331,
      "arg_perigee_deg": 73.7256,
      "mean_anomaly_deg": 286.388,
      "mean_motion_rev_day": 15.301885
    },
    {
      "epoch": "2026-04-07T20:25:44.491296Z",
      "apogee_km": 476.13853725590525,
      "perigee_km": 474.3922903208713,
      "latitude_deg": 1.2323560770413754e-05,
      "longitude_deg": -164.14825000442914,
      "height_km": 475.9413727256456,
      "semi_major_axis_km": 6853.402413788388,
      "eccentricity": 0.0001274,
      "inclination_deg": 53.1609,
      "raan_deg": 338.4093,
      "arg_perigee_deg": 75.2526,
      "mean_anomaly_deg": 284.8616,
      "mean_motion_rev_day": 15.30183139
    },
    {
      "epoch": "2026-04-08T08:58:09.662016Z",
      "apogee_km": 476.23217319229116,
      "perigee_km": 474.2340046091722,
      "latitude_deg": 3.0382443658208077e-05,
      "longitude_deg": 4.804771002752978,
      "height_km": 475.9107917548211,
      "semi_major_axis_km": 6853.370088900731,
      "eccentricity": 0.00014578,
      "inclination_deg": 53.162,
      "raan_deg": 335.9822,
      "arg_perigee_deg": 77.2571,
      "mean_anomaly_deg": 282.8593,
      "mean_motion_rev_day": 15.30193965
    },
    {
      "epoch": "2026-04-09T19:27:19.773792Z",
      "apogee_km": 476.3250252278376,
      "perigee_km": 474.1634687825326,
      "latitude_deg": 1.5355358602372092e-05,
      "longitude_deg": -160.57817241592,
      "height_km": 475.999326166682,
      "semi_major_axis_km": 6853.381247005185,
      "eccentricity": 0.0001577,
      "inclination_deg": 53.16,
      "raan_deg": 329.3077,
      "arg_perigee_deg": 82.419,
      "mean_anomaly_deg": 277.699,
      "mean_motion_rev_day": 15.30190228
    }
  ]
}